{"fetched_at":"2026-03-30T06:02:59Z","count":15439,"tles":[{"name":"STARLINK-35881","line1":"1 66830U 25280K   26087.92878782  .00002586  00000+0  22442-3 0  9991","line2":"2 66830  69.9999 286.1086 0001407 277.3590  82.7410 14.98337878 18955","category":"Starlink"}]}