{
  "norad_id": 66830,
  "name": "STARLINK-35881",
  "history": [
    {
      "epoch": "2026-03-28T22:17:27.267648",
      "apogee_km": 573.0094176980456,
      "perigee_km": 571.053640273989,
      "latitude_deg": 39.33650910682317,
      "longitude_deg": -127.83636928000487,
      "semi_major_axis_km": 6950.168528986017,
      "eccentricity": 0.0001407,
      "inclination_deg": 69.9999,
      "raan_deg": 286.1086,
      "arg_perigee_deg": 277.359,
      "mean_anomaly_deg": 82.741,
      "mean_motion_rev_day": 14.98337878
    }
  ]
}